[{"OBJECT_NAME":"STARLINK-2654","OBJECT_ID":"2021-040AC","EPOCH":"2025-08-10T06:08:36.573504","MEAN_MOTION":15.06398027,"ECCENTRICITY":0.0001375,"INCLINATION":53.0551,"RA_OF_ASC_NODE":50.7841,"ARG_OF_PERICENTER":92.4944,"MEAN_ANOMALY":267.6203,"EPHEMERIS_TYPE":0,"CLASSIFICATION_TYPE":"U","NORAD_CAT_ID":48454,"ELEMENT_SET_NO":999,"REV_AT_EPOCH":23476,"BSTAR":0.00012852,"MEAN_MOTION_DOT":1.633e-5,"MEAN_MOTION_DDOT":0},{"OBJECT_NAME":"STARLINK-2497","OBJECT_ID":"2021-040AD","EPOCH":"2025-08-10T06:03:18.215424","MEAN_MOTION":15.06396805,"ECCENTRICITY":0.0001193,"INCLINATION":53.0532,"RA_OF_ASC_NODE":50.7971,"ARG_OF_PERICENTER":91.3634,"MEAN_ANOMALY":268.7492,"EPHEMERIS_TYPE":0,"CLASSIFICATION_TYPE":"U","NORAD_CAT_ID":48455,"ELEMENT_SET_NO":999,"REV_AT_EPOCH":23475,"BSTAR":8.227e-5,"MEAN_MOTION_DOT":9.44e-6,"MEAN_MOTION_DDOT":0},{"OBJECT_NAME":"STARLINK-2698","OBJECT_ID":"2021-040AG","EPOCH":"2025-08-10T06:15:54.967968","MEAN_MOTION":15.06400268,"ECCENTRICITY":0.0001346,"INCLINATION":53.0558,"RA_OF_ASC_NODE":55.8447,"ARG_OF_PERICENTER":89.4853,"MEAN_ANOMALY":270.629,"EPHEMERIS_TYPE":0,"CLASSIFICATION_TYPE":"U","NORAD_CAT_ID":48458,"ELEMENT_SET_NO":999,"REV_AT_EPOCH":23540,"BSTAR":6.2039e-5,"MEAN_MOTION_DOT":6.43e-6,"MEAN_MOTION_DDOT":0},{"OBJECT_NAME":"STARLINK-2579","OBJECT_ID":"2021-040AH","EPOCH":"2025-08-10T06:05:20.900832","MEAN_MOTION":15.063984,"ECCENTRICITY":0.0001472,"INCLINATION":53.056,"RA_OF_ASC_NODE":56.1497,"ARG_OF_PERICENTER":84.283,"MEAN_ANOMALY":275.8326,"EPHEMERIS_TYPE":0,"CLASSIFICATION_TYPE":"U","NORAD_CAT_ID":48459,"ELEMENT_SET_NO":999,"REV_AT_EPOCH":23469,"BSTAR":0.00014164,"MEAN_MOTION_DOT":1.829e-5,"MEAN_MOTION_DDOT":0},{"OBJECT_NAME":"STARLINK-2582","OBJECT_ID":"2021-040AJ","EPOCH":"2025-08-09T19:04:33.232512","MEAN_MOTION":15.22002823,"ECCENTRICITY":0.000351,"INCLINATION":53.0606,"RA_OF_ASC_NODE":45.1654,"ARG_OF_PERICENTER":52.6741,"MEAN_ANOMALY":307.4575,"EPHEMERIS_TYPE":0,"CLASSIFICATION_TYPE":"U","NORAD_CAT_ID":48460,"ELEMENT_SET_NO":999,"REV_AT_EPOCH":23531,"BSTAR":0.002765,"MEAN_MOTION_DOT":0.00064186,"MEAN_MOTION_DDOT":0},{"OBJECT_NAME":"STARLINK-2683","OBJECT_ID":"2021-040AL","EPOCH":"2025-08-10T06:28:32.779776","MEAN_MOTION":15.0640194,"ECCENTRICITY":0.000139,"INCLINATION":53.0543,"RA_OF_ASC_NODE":60.9996,"ARG_OF_PERICENTER":91.7101,"MEAN_ANOMALY":268.4047,"EPHEMERIS_TYPE":0,"CLASSIFICATION_TYPE":"U","NORAD_CAT_ID":48462,"ELEMENT_SET_NO":999,"REV_AT_EPOCH":23462,"BSTAR":2.7175e-5,"MEAN_MOTION_DOT":1.23e-6,"MEAN_MOTION_DDOT":0},{"OBJECT_NAME":"STARLINK-2686","OBJECT_ID":"2021-040AN","EPOCH":"2025-08-10T14:04:58.979136","MEAN_MOTION":15.06387406,"ECCENTRICITY":0.0001132,"INCLINATION":53.0536,"RA_OF_ASC_NODE":59.2955,"ARG_OF_PERICENTER":78.2346,"MEAN_ANOMALY":281.877,"EPHEMERIS_TYPE":0,"CLASSIFICATION_TYPE":"U","NORAD_CAT_ID":48464,"ELEMENT_SET_NO":999,"REV_AT_EPOCH":23467,"BSTAR":6.2513e-6,"MEAN_MOTION_DOT":-1.88e-6,"MEAN_MOTION_DDOT":0},{"OBJECT_NAME":"STARLINK-2681","OBJECT_ID":"2021-040AP","EPOCH":"2025-08-09T20:49:56.733600","MEAN_MOTION":15.06404315,"ECCENTRICITY":0.0001226,"INCLINATION":53.0543,"RA_OF_ASC_NODE":62.5238,"ARG_OF_PERICENTER":109.3912,"MEAN_ANOMALY":250.721,"EPHEMERIS_TYPE":0,"CLASSIFICATION_TYPE":"U","NORAD_CAT_ID":48465,"ELEMENT_SET_NO":999,"REV_AT_EPOCH":23457,"BSTAR":0.00050241,"MEAN_MOTION_DOT":7.211e-5,"MEAN_MOTION_DDOT":0},{"OBJECT_NAME":"STARLINK-2687","OBJECT_ID":"2021-040AQ","EPOCH":"2025-08-10T13:59:40.418880","MEAN_MOTION":15.06385324,"ECCENTRICITY":0.0001429,"INCLINATION":53.0542,"RA_OF_ASC_NODE":59.3141,"ARG_OF_PERICENTER":97.0253,"MEAN_ANOMALY":263.0898,"EPHEMERIS_TYPE":0,"CLASSIFICATION_TYPE":"U","NORAD_CAT_ID":48466,"ELEMENT_SET_NO":999,"REV_AT_EPOCH":23468,"BSTAR":-5.0703e-5,"MEAN_MOTION_DOT":-1.036e-5,"MEAN_MOTION_DDOT":0},{"OBJECT_NAME":"STARLINK-2659","OBJECT_ID":"2021-040AR","EPOCH":"2025-08-10T06:39:07.478496","MEAN_MOTION":15.06398796,"ECCENTRICITY":0.0001293,"INCLINATION":53.0559,"RA_OF_ASC_NODE":60.6872,"ARG_OF_PERICENTER":85.1596,"MEAN_ANOMALY":274.954,"EPHEMERIS_TYPE":0,"CLASSIFICATION_TYPE":"U","NORAD_CAT_ID":48467,"ELEMENT_SET_NO":999,"REV_AT_EPOCH":23463,"BSTAR":3.0476e-5,"MEAN_MOTION_DOT":1.73e-6,"MEAN_MOTION_DDOT":0},{"OBJECT_NAME":"STARLINK-2685","OBJECT_ID":"2021-040AS","EPOCH":"2025-08-10T06:12:34.475904","MEAN_MOTION":15.06399521,"ECCENTRICITY":0.0001347,"INCLINATION":53.0549,"RA_OF_ASC_NODE":60.7687,"ARG_OF_PERICENTER":84.5931,"MEAN_ANOMALY":275.5212,"EPHEMERIS_TYPE":0,"CLASSIFICATION_TYPE":"U","NORAD_CAT_ID":48468,"ELEMENT_SET_NO":999,"REV_AT_EPOCH":23463,"BSTAR":8.9474e-5,"MEAN_MOTION_DOT":1.051e-5,"MEAN_MOTION_DDOT":0},{"OBJECT_NAME":"STARLINK-2661","OBJECT_ID":"2021-040AT","EPOCH":"2025-08-10T06:33:49.218912","MEAN_MOTION":15.06395903,"ECCENTRICITY":0.0001437,"INCLINATION":53.0552,"RA_OF_ASC_NODE":60.701,"ARG_OF_PERICENTER":89.8602,"MEAN_ANOMALY":270.2551,"EPHEMERIS_TYPE":0,"CLASSIFICATION_TYPE":"U","NORAD_CAT_ID":48469,"ELEMENT_SET_NO":999,"REV_AT_EPOCH":23463,"BSTAR":4.222e-5,"MEAN_MOTION_DOT":3.47e-6,"MEAN_MOTION_DDOT":0},{"OBJECT_NAME":"STARLINK-2675","OBJECT_ID":"2021-040AU","EPOCH":"2025-08-09T20:07:33.375072","MEAN_MOTION":15.06413915,"ECCENTRICITY":0.0001531,"INCLINATION":53.0538,"RA_OF_ASC_NODE":63.0005,"ARG_OF_PERICENTER":100.4592,"MEAN_ANOMALY":259.6569,"EPHEMERIS_TYPE":0,"CLASSIFICATION_TYPE":"U","NORAD_CAT_ID":48470,"ELEMENT_SET_NO":999,"REV_AT_EPOCH":23455,"BSTAR":0.00020511,"MEAN_MOTION_DOT":2.776e-5,"MEAN_MOTION_DDOT":0},{"OBJECT_NAME":"STARLINK-2684","OBJECT_ID":"2021-040AV","EPOCH":"2025-08-10T06:17:52.739808","MEAN_MOTION":15.06401679,"ECCENTRICITY":0.0001223,"INCLINATION":53.0539,"RA_OF_ASC_NODE":60.7535,"ARG_OF_PERICENTER":90.5893,"MEAN_ANOMALY":269.5236,"EPHEMERIS_TYPE":0,"CLASSIFICATION_TYPE":"U","NORAD_CAT_ID":48471,"ELEMENT_SET_NO":999,"REV_AT_EPOCH":23462,"BSTAR":9.0584e-5,"MEAN_MOTION_DOT":1.068e-5,"MEAN_MOTION_DDOT":0},{"OBJECT_NAME":"STARLINK-2722","OBJECT_ID":"2021-040AW","EPOCH":"2025-08-10T05:51:22.400064","MEAN_MOTION":15.06405008,"ECCENTRICITY":0.0001405,"INCLINATION":53.0535,"RA_OF_ASC_NODE":60.8351,"ARG_OF_PERICENTER":81.2333,"MEAN_ANOMALY":278.8815,"EPHEMERIS_TYPE":0,"CLASSIFICATION_TYPE":"U","NORAD_CAT_ID":48472,"ELEMENT_SET_NO":999,"REV_AT_EPOCH":23461,"BSTAR":0.00059235,"MEAN_MOTION_DOT":8.554e-5,"MEAN_MOTION_DDOT":0},{"OBJECT_NAME":"STARLINK-2658","OBJECT_ID":"2021-040AX","EPOCH":"2025-08-09T22:46:43.184352","MEAN_MOTION":15.06408896,"ECCENTRICITY":0.000129,"INCLINATION":53.0557,"RA_OF_ASC_NODE":62.1615,"ARG_OF_PERICENTER":93.6505,"MEAN_ANOMALY":266.4631,"EPHEMERIS_TYPE":0,"CLASSIFICATION_TYPE":"U","NORAD_CAT_ID":48473,"ELEMENT_SET_NO":999,"REV_AT_EPOCH":23457,"BSTAR":0.00012269,"MEAN_MOTION_DOT":1.547e-5,"MEAN_MOTION_DDOT":0},{"OBJECT_NAME":"STARLINK-2697","OBJECT_ID":"2021-040AY","EPOCH":"2025-08-09T20:23:24.512064","MEAN_MOTION":15.06408931,"ECCENTRICITY":0.0001447,"INCLINATION":53.0554,"RA_OF_ASC_NODE":62.607,"ARG_OF_PERICENTER":91.6468,"MEAN_ANOMALY":268.4687,"EPHEMERIS_TYPE":0,"CLASSIFICATION_TYPE":"U","NORAD_CAT_ID":48474,"ELEMENT_SET_NO":999,"REV_AT_EPOCH":23455,"BSTAR":9.4914e-5,"MEAN_MOTION_DOT":1.133e-5,"MEAN_MOTION_DDOT":0}]
