STARLINK-2654           
1 48454U 21040AC  25222.25597886  .00001633  00000+0  12852-3 0  9998
2 48454  53.0551  50.7841 0001375  92.4944 267.6203 15.06398027234768
STARLINK-2497           
1 48455U 21040AD  25222.25229416  .00000944  00000+0  82270-4 0  9996
2 48455  53.0532  50.7971 0001193  91.3634 268.7492 15.06396805234757
STARLINK-2698           
1 48458U 21040AG  25222.26105287  .00000643  00000+0  62039-4 0  9996
2 48458  53.0558  55.8447 0001346  89.4853 270.6290 15.06400268235403
STARLINK-2579           
1 48459U 21040AH  25222.25371413  .00001829  00000+0  14164-3 0  9994
2 48459  53.0560  56.1497 0001472  84.2830 275.8326 15.06398400234695
STARLINK-2582           
1 48460U 21040AJ  25221.79482908  .00064186  00000+0  27650-2 0  9994
2 48460  53.0606  45.1654 0003510  52.6741 307.4575 15.22002823235313
STARLINK-2683           
1 48462U 21040AL  25222.26982384  .00000123  00000+0  27175-4 0  9997
2 48462  53.0543  60.9996 0001390  91.7101 268.4047 15.06401940234625
STARLINK-2686           
1 48464U 21040AN  25222.58679374 -.00000188  00000+0  62513-5 0  9994
2 48464  53.0536  59.2955 0001132  78.2346 281.8770 15.06387406234677
STARLINK-2681           
1 48465U 21040AP  25221.86801775  .00007211  00000+0  50241-3 0  9993
2 48465  53.0543  62.5238 0001226 109.3912 250.7210 15.06404315234578
STARLINK-2687           
1 48466U 21040AQ  25222.58310670 -.00001036  00000+0 -50703-4 0  9998
2 48466  53.0542  59.3141 0001429  97.0253 263.0898 15.06385324234680
STARLINK-2659           
1 48467U 21040AR  25222.27716989  .00000173  00000+0  30476-4 0  9992
2 48467  53.0559  60.6872 0001293  85.1596 274.9540 15.06398796234639
STARLINK-2685           
1 48468U 21040AS  25222.25873236  .00001051  00000+0  89474-4 0  9998
2 48468  53.0549  60.7687 0001347  84.5931 275.5212 15.06399521234630
STARLINK-2661           
1 48469U 21040AT  25222.27348633  .00000347  00000+0  42220-4 0  9994
2 48469  53.0552  60.7010 0001437  89.8602 270.2551 15.06395903234636
STARLINK-2675           
1 48470U 21040AU  25221.83858073  .00002776  00000+0  20511-3 0  9997
2 48470  53.0538  63.0005 0001531 100.4592 259.6569 15.06413915234550
STARLINK-2684           
1 48471U 21040AV  25222.26241597  .00001068  00000+0  90584-4 0  9994
2 48471  53.0539  60.7535 0001223  90.5893 269.5236 15.06401679234628
STARLINK-2722           
1 48472U 21040AW  25222.24400926  .00008554  00000+0  59235-3 0  9990
2 48472  53.0535  60.8351 0001405  81.2333 278.8815 15.06405008234615
STARLINK-2658           
1 48473U 21040AX  25221.94911093  .00001547  00000+0  12269-3 0  9990
2 48473  53.0557  62.1615 0001290  93.6505 266.4631 15.06408896234570
STARLINK-2697           
1 48474U 21040AY  25221.84958926  .00001133  00000+0  94914-4 0  9995
2 48474  53.0554  62.6070 0001447  91.6468 268.4687 15.06408931234559
